{
  "type": "FeatureCollection",
  "features": [
    {
      "type": "Feature",
      "properties": {
        "norad_id": 36585,
        "name": "GPS BIIF-1  (PRN 25)",
        "group": "gnss",
        "lat": 7.441623490313057,
        "lon": 31.021197313481988,
        "alt_km": 20269.842801508566,
        "timestamp": "2025-12-04T17:48:40.408524+00:00",
        "meta_object_name": "GPS BIIF-1  (PRN 25)",
        "meta_object_id": "2010-022A",
        "meta_epoch": "2025-12-04T06:16:58.952352",
        "meta_mean_motion": 2.00552666,
        "meta_eccentricity": 0.01257612,
        "meta_inclination": 54.3017,
        "meta_ra_of_asc_node": 216.4159,
        "meta_arg_of_pericenter": 64.9818,
        "meta_mean_anomaly": 117.6828,
        "meta_ephemeris_type": 0,
        "meta_classification_type": "U",
        "meta_norad_cat_id": 36585,
        "meta_element_set_no": 999,
        "meta_rev_at_epoch": 11368,
        "meta_bstar": 0,
        "meta_mean_motion_dot": 7e-07,
        "meta_mean_motion_ddot": 0,
        "tle_line1": "1 36585U 10022A   25338.26179343  .00000070  00000+0  00000+0 0  9993",
        "tle_line2": "2 36585  54.3017 216.4159 0125761  64.9818 117.6828  2.00552666113689"
      },
      "geometry": {
        "type": "Point",
        "coordinates": [
          31.021197313481988,
          7.441623490313057
        ]
      }
    },
    {
      "type": "Feature",
      "properties": {
        "norad_id": 36828,
        "name": "BEIDOU-2 IGSO-1 (C06)",
        "group": "gnss",
        "lat": -51.7449180695146,
        "lon": 98.64216638221502,
        "alt_km": 35710.833201389505,
        "timestamp": "2025-12-04T17:48:40.408536+00:00",
        "meta_object_name": "BEIDOU-2 IGSO-1 (C06)",
        "meta_object_id": "2010-036A",
        "meta_epoch": "2025-12-03T10:50:44.943648",
        "meta_mean_motion": 1.00278626,
        "meta_eccentricity": 0.00512649,
        "meta_inclination": 54.2837,
        "meta_ra_of_asc_node": 164.7326,
        "meta_arg_of_pericenter": 215.7728,
        "meta_mean_anomaly": 322.4753,
        "meta_ephemeris_type": 0,
        "meta_classification_type": "U",
        "meta_norad_cat_id": 36828,
        "meta_element_set_no": 999,
        "meta_rev_at_epoch": 5613,
        "meta_bstar": 0,
        "meta_mean_motion_dot": -2.4e-07,
        "meta_mean_motion_ddot": 0,
        "tle_line1": "1 36828U 10036A   25337.45190907 -.00000024  00000+0  00000+0 0  9997",
        "tle_line2": "2 36828  54.2837 164.7326 0051264 215.7728 322.4753  1.00278626 56130"
      },
      "geometry": {
        "type": "Point",
        "coordinates": [
          98.64216638221502,
          -51.7449180695146
        ]
      }
    },
    {
      "type": "Feature",
      "properties": {
        "norad_id": 37210,
        "name": "BEIDOU-2 G4 (C04)",
        "group": "gnss",
        "lat": 2.9949031159343433,
        "lon": 140.89634698621705,
        "alt_km": 35807.33483140258,
        "timestamp": "2025-12-04T17:48:40.408548+00:00",
        "meta_object_name": "BEIDOU-2 G4 (C04)",
        "meta_object_id": "2010-057A",
        "meta_epoch": "2025-12-04T05:55:37.533216",
        "meta_mean_motion": 1.00271298,
        "meta_eccentricity": 0.00109363,
        "meta_inclination": 3.1621,
        "meta_ra_of_asc_node": 69.9588,
        "meta_arg_of_pericenter": 188.7123,
        "meta_mean_anomaly": 63.6293,
        "meta_ephemeris_type": 0,
        "meta_classification_type": "U",
        "meta_norad_cat_id": 37210,
        "meta_element_set_no": 999,
        "meta_rev_at_epoch": 5533,
        "meta_bstar": 0,
        "meta_mean_motion_dot": -9.7e-07,
        "meta_mean_motion_ddot": 0,
        "tle_line1": "1 37210U 10057A   25338.24696219 -.00000097  00000+0  00000+0 0  9991",
        "tle_line2": "2 37210   3.1621  69.9588 0010936 188.7123  63.6293  1.00271298 55337"
      },
      "geometry": {
        "type": "Point",
        "coordinates": [
          140.89634698621705,
          2.9949031159343433
        ]
      }
    },
    {
      "type": "Feature",
      "properties": {
        "norad_id": 37256,
        "name": "BEIDOU-2 IGSO-2 (C07)",
        "group": "gnss",
        "lat": 4.724280966910587,
        "lon": 89.93242886415078,
        "alt_km": 35628.14945518665,
        "timestamp": "2025-12-04T17:48:40.408560+00:00",
        "meta_object_name": "BEIDOU-2 IGSO-2 (C07)",
        "meta_object_id": "2010-068A",
        "meta_epoch": "2025-12-03T17:22:36.030432",
        "meta_mean_motion": 1.0028871,
        "meta_eccentricity": 0.00492335,
        "meta_inclination": 47.9043,
        "meta_ra_of_asc_node": 274.2613,
        "meta_arg_of_pericenter": 216.1442,
        "meta_mean_anomaly": 310.2369,
        "meta_ephemeris_type": 0,
        "meta_classification_type": "U",
        "meta_norad_cat_id": 37256,
        "meta_element_set_no": 999,
        "meta_rev_at_epoch": 5483,
        "meta_bstar": 0,
        "meta_mean_motion_dot": -2.25e-06,
        "meta_mean_motion_ddot": 0,
        "tle_line1": "1 37256U 10068A   25337.72402813 -.00000225  00000+0  00000+0 0  9993",
        "tle_line2": "2 37256  47.9043 274.2613 0049233 216.1442 310.2369  1.00288710 54839"
      },
      "geometry": {
        "type": "Point",
        "coordinates": [
          89.93242886415078,
          4.724280966910587
        ]
      }
    },
    {
      "type": "Feature",
      "properties": {
        "norad_id": 37384,
        "name": "BEIDOU-2 IGSO-3 (C08)",
        "group": "gnss",
        "lat": 39.77466726062035,
        "lon": 68.1053723595664,
        "alt_km": 35896.88947995961,
        "timestamp": "2025-12-04T17:48:40.408573+00:00",
        "meta_object_name": "BEIDOU-2 IGSO-3 (C08)",
        "meta_object_id": "2011-013A",
        "meta_epoch": "2025-12-03T14:52:09.520896",
        "meta_mean_motion": 1.00272128,
        "meta_eccentricity": 0.00353922,
        "meta_inclination": 62.1308,
        "meta_ra_of_asc_node": 42.005,
        "meta_arg_of_pericenter": 186.5359,
        "meta_mean_anomaly": 174.9093,
        "meta_ephemeris_type": 0,
        "meta_classification_type": "U",
        "meta_norad_cat_id": 37384,
        "meta_element_set_no": 999,
        "meta_rev_at_epoch": 5370,
        "meta_bstar": 0,
        "meta_mean_motion_dot": -1.99e-06,
        "meta_mean_motion_ddot": 0,
        "tle_line1": "1 37384U 11013A   25337.61955464 -.00000199  00000+0  00000+0 0  9999",
        "tle_line2": "2 37384  62.1308  42.0050 0035392 186.5359 174.9093  1.00272128 53708"
      },
      "geometry": {
        "type": "Point",
        "coordinates": [
          68.1053723595664,
          39.77466726062035
        ]
      }
    },
    {
      "type": "Feature",
      "properties": {
        "norad_id": 37605,
        "name": "GSAT-8 (GAGAN/PRN 127)",
        "group": "gnss",
        "lat": -1.1867048464835612,
        "lon": 36.13730278133751,
        "alt_km": 35812.61217289528,
        "timestamp": "2025-12-04T17:48:40.408585+00:00",
        "meta_object_name": "GSAT-8 (GAGAN/PRN 127)",
        "meta_object_id": "2011-022A",
        "meta_epoch": "2025-12-04T03:42:57.742272",
        "meta_mean_motion": 1.00272963,
        "meta_eccentricity": 0.00090516,
        "meta_inclination": 1.6259,
        "meta_ra_of_asc_node": 84.2835,
        "meta_arg_of_pericenter": 177.66,
        "meta_mean_anomaly": 282.1161,
        "meta_ephemeris_type": 0,
        "meta_classification_type": "U",
        "meta_norad_cat_id": 37605,
        "meta_element_set_no": 999,
        "meta_rev_at_epoch": 5126,
        "meta_bstar": 0,
        "meta_mean_motion_dot": 1e-06,
        "meta_mean_motion_ddot": 0,
        "tle_line1": "1 37605U 11022A   25338.15483498  .00000100  00000+0  00000+0 0  9999",
        "tle_line2": "2 37605   1.6259  84.2835 0009051 177.6600 282.1161  1.00272963 51263"
      },
      "geometry": {
        "type": "Point",
        "coordinates": [
          36.13730278133751,
          -1.1867048464835612
        ]
      }
    },
    {
      "type": "Feature",
      "properties": {
        "norad_id": 37763,
        "name": "BEIDOU-2 IGSO-4 (C09)",
        "group": "gnss",
        "lat": -54.49614581031293,
        "lon": 75.16667846557459,
        "alt_km": 35293.061401397994,
        "timestamp": "2025-12-04T17:48:40.408597+00:00",
        "meta_object_name": "BEIDOU-2 IGSO-4 (C09)",
        "meta_object_id": "2011-038A",
        "meta_epoch": "2025-12-01T12:32:09.960864",
        "meta_mean_motion": 1.00284074,
        "meta_eccentricity": 0.01487808,
        "meta_inclination": 54.5808,
        "meta_ra_of_asc_node": 167.4476,
        "meta_arg_of_pericenter": 230.2031,
        "meta_mean_anomaly": 315.0387,
        "meta_ephemeris_type": 0,
        "meta_classification_type": "U",
        "meta_norad_cat_id": 37763,
        "meta_element_set_no": 999,
        "meta_rev_at_epoch": 5266,
        "meta_bstar": 0,
        "meta_mean_motion_dot": 1.01e-06,
        "meta_mean_motion_ddot": 0,
        "tle_line1": "1 37763U 11038A   25335.52233751  .00000101  00000+0  00000+0 0  9995",
        "tle_line2": "2 37763  54.5808 167.4476 0148780 230.2031 315.0387  1.00284074 52664"
      },
      "geometry": {
        "type": "Point",
        "coordinates": [
          75.16667846557459,
          -54.49614581031293
        ]
      }
    }
  ]
}